ONEWEB-0213             
1 48790U 21045Z   23059.25689357 -.00000065  00000+0 -20623-3 0  9992
2 48790  87.9089 139.1231 0001336 105.5070 254.6208 13.15547887 86013
ONEWEB-0213             
1 48790U 21045Z   23059.25689357 -.00000065  00000+0 -20623-3 0  9992
2 48790  87.9089 139.1231 0001336 105.5070 254.6208 13.15547887 87148
ONEWEB-0213             
1 48790U 21045Z   23059.63718007 -.00000125  00000+0 -36565-3 0  9998
2 48790  87.9089 139.0477 0001336 105.7863 254.3414 13.15548251 86063
ONEWEB-0213             
1 48790U 21045Z   23060.24563880 -.00000145  00000+0 -41900-3 0  9995
2 48790  87.9088 138.9269 0001355 106.5464 253.5815 13.15548142 86140
ONEWEB-0213             
1 48790U 21045Z   23061.15832695 -.00000062  00000+0 -19740-3 0  9994
2 48790  87.9086 138.7458 0001346 107.2186 252.9092 13.15548064 87396
ONEWEB-0213             
1 48790U 21045Z   23061.61467089 -.00000085  00000+0 -25886-3 0  9999
2 48790  87.9089 138.6555 0001352 108.0361 252.0917 13.15548705 86328
ONEWEB-0213             
1 48790U 21045Z   23062.29918744  .00000018  00000+0  13823-4 0  9996
2 48790  87.9087 138.5196 0001371 108.3030 251.8249 13.15548358 86412
ONEWEB-0213             
1 48790U 21045Z   23062.29918744  .00000018  00000+0  13823-4 0  9996
2 48790  87.9087 138.5196 0001371 108.3030 251.8249 13.15548358 87547
ONEWEB-0213             
1 48790U 21045Z   23062.60341631  .00000088  00000+0  20015-3 0  9993
2 48790  87.9086 138.4592 0001365 108.2476 251.8803 13.15549139 86454
